{
  "type": "FeatureCollection",
  "metadata": {
    "source": "Sentinel-2 Level-2A Multi-Spectral Processing",
    "scene_id": "S2C_MSIL2A_20260616T050651_R019_T44QMK_20260616T100816",
    "crs": "EPSG:4326",
    "bands_used": [
      "B04",
      "B08",
      "B11",
      "B12"
    ],
    "indices": [
      "NDVI",
      "SWIR1/SWIR2 (Hydrothermal)",
      "SWIR1/NIR (Ferrous Iron)"
    ]
  },
  "features": [
    {
      "type": "Feature",
      "geometry": {
        "type": "Polygon",
        "coordinates": [
          [
            [
              80.16861,
              21.84
            ],
            [
              80.16861,
              21.83991
            ],
            [
              80.16861,
              21.83982
            ],
            [
              80.16866,
              21.83977
            ],
            [
              80.16871,
              21.83973
            ],
            [
              80.16876,
              21.83968
            ],
            [
              80.16881,
              21.83964
            ],
            [
              80.16881,
              21.83955
            ],
            [
              80.16881,
              21.83946
            ],
            [
              80.16886,
              21.83941
            ],
            [
              80.1689,
              21.83937
            ],
            [
              80.16895,
              21.83932
            ],
            [
              80.169,
              21.83928
            ],
            [
              80.169,
              21.83919
            ],
            [
              80.169,
              21.8391
            ],
            [
              80.16905,
              21.83905
            ],
            [
              80.16915,
              21.83905
            ],
            [
              80.1692,
              21.83901
            ],
            [
              80.1692,
              21.83892
            ],
            [
              80.1692,
              21.83883
            ],
            [
              80.1692,
              21.83874
            ],
            [
              80.1692,
              21.83865
            ],
            [
              80.16925,
              21.8386
            ],
            [
              80.1693,
              21.83856
            ],
            [
              80.1693,
              21.83847
            ],
            [
              80.16935,
              21.83842
            ],
            [
              80.16939,
              21.83838
            ],
            [
              80.16939,
              21.83829
            ],
            [
              80.1694,
              21.8382
            ],
            [
              80.1694,
              21.83811
            ],
            [
              80.1694,
              21.83801
            ],
            [
              80.16944,
              21.83797
            ],
            [
              80.16949,
              21.83793
            ],
            [
              80.16954,
              21.83788
            ],
            [
              80.16959,
              21.83784
            ],
            [
              80.16959,
              21.83774
            ],
            [
              80.16959,
              21.83765
            ],
            [
              80.16959,
              21.83756
            ],
            [
              80.16964,
              21.83752
            ],
            [
              80.16969,
              21.83747
            ],
            [
              80.16974,
              21.83743
            ],
            [
              80.16979,
              21.83738
            ],
            [
              80.16979,
              21.83729
            ],
            [
              80.16979,
              21.8372
            ],
            [
              80.16979,
              21.83711
            ],
            [
              80.16979,
              21.83702
            ],
            [
              80.16984,
              21.83698
            ],
            [
              80.16989,
              21.83693
            ],
            [
              80.16989,
              21.83684
            ],
            [
              80.16989,
              21.83675
            ],
            [
              80.16994,
              21.83671
            ],
            [
              80.16998,
              21.83666
            ],
            [
              80.16998,
              21.83657
            ],
            [
              80.16999,
              21.83648
            ],
            [
              80.16999,
              21.83639
            ],
            [
              80.16999,
              21.8363
            ],
            [
              80.16999,
              21.83621
            ],
            [
              80.16994,
              21.83617
            ],
            [
              80.16989,
              21.83612
            ],
            [
              80.16989,
              21.83603
            ],
            [
              80.16984,
              21.83598
            ],
            [
              80.16979,
              21.83603
            ],
            [
              80.16975,
              21.83607
            ],
            [
              80.1697,
              21.83612
            ],
            [
              80.1697,
              21.83621
            ],
            [
              80.16974,
              21.83626
            ],
            [
              80.16979,
              21.8363
            ],
            [
              80.16979,
              21.83639
            ],
            [
              80.16979,
              21.83648
            ],
            [
              80.16974,
              21.83653
            ],
            [
              80.16969,
              21.83657
            ],
            [
              80.16969,
              21.83666
            ],
            [
              80.16969,
              21.83675
            ],
            [
              80.16969,
              21.83684
            ],
            [
              80.16969,
              21.83693
            ],
            [
              80.16964,
              21.83698
            ],
            [
              80.1696,
              21.83702
            ],
            [
              80.16959,
              21.83711
            ],
            [
              80.16959,
              21.8372
            ],
            [
              80.16955,
              21.83725
            ],
            [
              80.1695,
              21.83729
            ],
            [
              80.1695,
              21.83738
            ],
            [
              80.1695,
              21.83747
            ],
            [
              80.16945,
              21.83752
            ],
            [
              80.1694,
              21.83756
            ],
            [
              80.1694,
              21.83765
            ],
            [
              80.1694,
              21.83774
            ],
            [
              80.16935,
              21.83779
            ],
            [
              80.1693,
              21.83783
            ],
            [
              80.1693,
              21.83792
            ],
            [
              80.16925,
              21.83797
            ],
            [
              80.1692,
              21.83801
            ],
            [
              80.1692,
              21.8381
            ],
            [
              80.1692,
              21.83819
            ],
            [
              80.1692,
              21.83828
            ],
            [
              80.16915,
              21.83833
            ],
            [
              80.1691,
              21.83837
            ],
            [
              80.1691,
              21.83847
            ],
            [
              80.1691,
              21.83856
            ],
            [
              80.16905,
              21.8386
            ],
            [
              80.16901,
              21.83865
            ],
            [
              80.169,
              21.83874
            ],
            [
              80.169,
              21.83883
            ],
            [
              80.169,
              21.83892
            ],
            [
              80.16896,
              21.83896
            ],
            [
              80.16891,
              21.83901
            ],
            [
              80.16886,
              21.83905
            ],
            [
              80.16881,
              21.8391
            ],
            [
              80.16881,
              21.83919
            ],
            [
              80.16876,
              21.83923
            ],
            [
              80.16871,
              21.83928
            ],
            [
              80.16871,
              21.83937
            ],
            [
              80.16866,
              21.83941
            ],
            [
              80.16861,
              21.83946
            ],
            [
              80.16861,
              21.83955
            ],
            [
              80.16856,
              21.83959
            ],
            [
              80.16852,
              21.83964
            ],
            [
              80.16852,
              21.83973
            ],
            [
              80.16851,
              21.83982
            ],
            [
              80.16847,
              21.83986
            ],
            [
              80.16837,
              21.83986
            ],
            [
              80.16832,
              21.83991
            ],
            [
              80.16832,
              21.84
            ],
            [
              80.16861,
              21.84
            ]
          ]
        ]
      },
      "properties": {
        "id": "S2-ANOM-001",
        "confidence": "MODERATE",
        "spectral_index": 1.246,
        "indicator_type": "Surface Hydrothermal & Iron Alteration Gossan",
        "satellite_source": "Sentinel-2 L2A",
        "scene_id": "S2C_MSIL2A_20260616T050651_R019_T44QMK_20260616T100816",
        "acquisition_date": "2026-06-16T05:06:51.025000Z",
        "scientific_note": "Surface alteration indicator; requires geological/structural verification"
      }
    },
    {
      "type": "Feature",
      "geometry": {
        "type": "Polygon",
        "coordinates": [
          [
            [
              80.17538,
              21.84003
            ],
            [
              80.17538,
              21.83994
            ],
            [
              80.17534,
              21.8399
            ],
            [
              80.17529,
              21.83985
            ],
            [
              80.17524,
              21.83981
            ],
            [
              80.17519,
              21.83985
            ],
            [
              80.17514,
              21.8399
            ],
            [
              80.17509,
              21.83994
            ],
            [
              80.17509,
              21.84003
            ],
            [
              80.17538,
              21.84003
            ]
          ]
        ]
      },
      "properties": {
        "id": "S2-ANOM-002",
        "confidence": "MODERATE",
        "spectral_index": 1.246,
        "indicator_type": "Surface Hydrothermal & Iron Alteration Gossan",
        "satellite_source": "Sentinel-2 L2A",
        "scene_id": "S2C_MSIL2A_20260616T050651_R019_T44QMK_20260616T100816",
        "acquisition_date": "2026-06-16T05:06:51.025000Z",
        "scientific_note": "Surface alteration indicator; requires geological/structural verification"
      }
    },
    {
      "type": "Feature",
      "geometry": {
        "type": "Polygon",
        "coordinates": [
          [
            [
              80.18119,
              21.84006
            ],
            [
              80.18119,
              21.83997
            ],
            [
              80.18124,
              21.83993
            ],
            [
              80.18129,
              21.83988
            ],
            [
              80.18124,
              21.83984
            ],
            [
              80.18119,
              21.83979
            ],
            [
              80.18124,
              21.83975
            ],
            [
              80.18129,
              21.8397
            ],
            [
              80.18129,
              21.83961
            ],
            [
              80.18129,
              21.83952
            ],
            [
              80.18129,
              21.83943
            ],
            [
              80.18129,
              21.83934
            ],
            [
              80.18134,
              21.83929
            ],
            [
              80.18139,
              21.83925
            ],
            [
              80.18139,
              21.83916
            ],
            [
              80.18139,
              21.83907
            ],
            [
              80.18139,
              21.83898
            ],
            [
              80.18134,
              21.83893
            ],
            [
              80.18129,
              21.83898
            ],
            [
              80.18129,
              21.83907
            ],
            [
              80.18129,
              21.83916
            ],
            [
              80.18124,
              21.8392
            ],
            [
              80.18115,
              21.8392
            ],
            [
              80.1811,
              21.83916
            ],
            [
              80.18105,
              21.83911
            ],
            [
              80.18095,
              21.83911
            ],
            [
              80.1809,
              21.83916
            ],
            [
              80.1809,
              21.83925
            ],
            [
              80.18095,
              21.83929
            ],
            [
              80.181,
              21.83934
            ],
            [
              80.18105,
              21.83938
            ],
            [
              80.18114,
              21.83938
            ],
            [
              80.18119,
              21.83943
            ],
            [
              80.18114,
              21.83947
            ],
            [
              80.1811,
              21.83952
            ],
            [
              80.18105,
              21.83956
            ],
            [
              80.18095,
              21.83956
            ],
            [
              80.1809,
              21.83961
            ],
            [
              80.18095,
              21.83965
            ],
            [
              80.181,
              21.8397
            ],
            [
              80.181,
              21.83979
            ],
            [
              80.181,
              21.83988
            ],
            [
              80.181,
              21.83997
            ],
            [
              80.181,
              21.84006
            ],
            [
              80.18119,
              21.84006
            ]
          ]
        ]
      },
      "properties": {
        "id": "S2-ANOM-003",
        "confidence": "MODERATE",
        "spectral_index": 1.246,
        "indicator_type": "Surface Hydrothermal & Iron Alteration Gossan",
        "satellite_source": "Sentinel-2 L2A",
        "scene_id": "S2C_MSIL2A_20260616T050651_R019_T44QMK_20260616T100816",
        "acquisition_date": "2026-06-16T05:06:51.025000Z",
        "scientific_note": "Surface alteration indicator; requires geological/structural verification"
      }
    },
    {
      "type": "Feature",
      "geometry": {
        "type": "Polygon",
        "coordinates": [
          [
            [
              80.18603,
              21.84009
            ],
            [
              80.18603,
              21.83999
            ],
            [
              80.18598,
              21.83995
            ],
            [
              80.18593,
              21.83999
            ],
            [
              80.18588,
              21.84004
            ],
            [
              80.18583,
              21.84008
            ],
            [
              80.18603,
              21.84009
            ]
          ]
        ]
      },
      "properties": {
        "id": "S2-ANOM-004",
        "confidence": "MODERATE",
        "spectral_index": 1.246,
        "indicator_type": "Surface Hydrothermal & Iron Alteration Gossan",
        "satellite_source": "Sentinel-2 L2A",
        "scene_id": "S2C_MSIL2A_20260616T050651_R019_T44QMK_20260616T100816",
        "acquisition_date": "2026-06-16T05:06:51.025000Z",
        "scientific_note": "Surface alteration indicator; requires geological/structural verification"
      }
    },
    {
      "type": "Feature",
      "geometry": {
        "type": "Polygon",
        "coordinates": [
          [
            [
              80.18651,
              21.84009
            ],
            [
              80.18651,
              21.84
            ],
            [
              80.18646,
              21.83995
            ],
            [
              80.18642,
              21.83991
            ],
            [
              80.18642,
              21.83982
            ],
            [
              80.18637,
              21.83977
            ],
            [
              80.18632,
              21.83982
            ],
            [
              80.18627,
              21.83986
            ],
            [
              80.18622,
              21.83991
            ],
            [
              80.18622,
              21.84
            ],
            [
              80.18622,
              21.84009
            ],
            [
              80.18651,
              21.84009
            ]
          ]
        ]
      },
      "properties": {
        "id": "S2-ANOM-005",
        "confidence": "MODERATE",
        "spectral_index": 1.246,
        "indicator_type": "Surface Hydrothermal & Iron Alteration Gossan",
        "satellite_source": "Sentinel-2 L2A",
        "scene_id": "S2C_MSIL2A_20260616T050651_R019_T44QMK_20260616T100816",
        "acquisition_date": "2026-06-16T05:06:51.025000Z",
        "scientific_note": "Surface alteration indicator; requires geological/structural verification"
      }
    },
    {
      "type": "Feature",
      "geometry": {
        "type": "Polygon",
        "coordinates": [
          [
            [
              80.1884,
              21.83969
            ],
            [
              80.1883,
              21.83969
            ],
            [
              80.18821,
              21.83969
            ],
            [
              80.18811,
              21.83969
            ],
            [
              80.18801,
              21.83969
            ],
            [
              80.18796,
              21.83973
            ],
            [
              80.18796,
              21.83982
            ],
            [
              80.18801,
              21.83987
            ],
            [
              80.18806,
              21.83991
            ],
            [
              80.18806,
              21.84
            ],
            [
              80.18811,
              21.84005
            ],
            [
              80.18816,
              21.84001
            ],
            [
              80.18821,
              21.83996
            ],
            [
              80.18825,
              21.83992
            ],
            [
              80.1883,
              21.83987
            ],
            [
              80.1884,
              21.83987
            ],
            [
              80.1885,
              21.83987
            ],
            [
              80.18854,
              21.83983
            ],
            [
              80.1885,
              21.83978
            ],
            [
              80.18845,
              21.83974
            ],
            [
              80.1884,
              21.83969
            ],
            [
              80.1884,
              21.83969
            ]
          ]
        ]
      },
      "properties": {
        "id": "S2-ANOM-006",
        "confidence": "MODERATE",
        "spectral_index": 1.246,
        "indicator_type": "Surface Hydrothermal & Iron Alteration Gossan",
        "satellite_source": "Sentinel-2 L2A",
        "scene_id": "S2C_MSIL2A_20260616T050651_R019_T44QMK_20260616T100816",
        "acquisition_date": "2026-06-16T05:06:51.025000Z",
        "scientific_note": "Surface alteration indicator; requires geological/structural verification"
      }
    },
    {
      "type": "Feature",
      "geometry": {
        "type": "Polygon",
        "coordinates": [
          [
            [
              80.18845,
              21.8401
            ],
            [
              80.1884,
              21.84005
            ],
            [
              80.18835,
              21.84001
            ],
            [
              80.1883,
              21.83996
            ],
            [
              80.18825,
              21.84001
            ],
            [
              80.18825,
              21.8401
            ],
            [
              80.18845,
              21.8401
            ]
          ]
        ]
      },
      "properties": {
        "id": "S2-ANOM-007",
        "confidence": "MODERATE",
        "spectral_index": 1.246,
        "indicator_type": "Surface Hydrothermal & Iron Alteration Gossan",
        "satellite_source": "Sentinel-2 L2A",
        "scene_id": "S2C_MSIL2A_20260616T050651_R019_T44QMK_20260616T100816",
        "acquisition_date": "2026-06-16T05:06:51.025000Z",
        "scientific_note": "Surface alteration indicator; requires geological/structural verification"
      }
    },
    {
      "type": "Feature",
      "geometry": {
        "type": "Polygon",
        "coordinates": [
          [
            [
              80.19503,
              21.84013
            ],
            [
              80.19503,
              21.84004
            ],
            [
              80.19503,
              21.83995
            ],
            [
              80.19503,
              21.83986
            ],
            [
              80.19508,
              21.83981
            ],
            [
              80.19517,
              21.83981
            ],
            [
              80.19527,
              21.83981
            ],
            [
              80.19532,
              21.83977
            ],
            [
              80.19532,
              21.83968
            ],
            [
              80.19532,
              21.83959
            ],
            [
              80.19532,
              21.8395
            ],
            [
              80.19532,
              21.83941
            ],
            [
              80.19532,
              21.83932
            ],
            [
              80.19532,
              21.83923
            ],
            [
              80.19527,
              21.83918
            ],
            [
              80.19522,
              21.83923
            ],
            [
              80.19518,
              21.83927
            ],
            [
              80.19508,
              21.83927
            ],
            [
              80.19498,
              21.83927
            ],
            [
              80.19493,
              21.83932
            ],
            [
              80.19489,
              21.83936
            ],
            [
              80.19479,
              21.83936
            ],
            [
              80.19469,
              21.83936
            ],
            [
              80.1946,
              21.83936
            ],
            [
              80.19455,
              21.8394
            ],
            [
              80.19455,
              21.83949
            ],
            [
              80.19459,
              21.83954
            ],
            [
              80.19469,
              21.83954
            ],
            [
              80.19479,
              21.83954
            ],
            [
              80.19488,
              21.83954
            ],
            [
              80.19493,
              21.83959
            ],
            [
              80.19493,
              21.83968
            ],
            [
              80.19493,
              21.83977
            ],
            [
              80.19488,
              21.83981
            ],
            [
              80.19479,
              21.83981
            ],
            [
              80.19469,
              21.83981
            ],
            [
              80.19464,
              21.83986
            ],
            [
              80.19464,
              21.83995
            ],
            [
              80.19469,
              21.83999
            ],
            [
              80.19479,
              21.83999
            ],
            [
              80.19483,
              21.84004
            ],
            [
              80.19488,
              21.84008
            ],
            [
              80.19493,
              21.84013
            ],
            [
              80.19503,
              21.84013
            ]
          ]
        ]
      },
      "properties": {
        "id": "S2-ANOM-008",
        "confidence": "MODERATE",
        "spectral_index": 1.246,
        "indicator_type": "Surface Hydrothermal & Iron Alteration Gossan",
        "satellite_source": "Sentinel-2 L2A",
        "scene_id": "S2C_MSIL2A_20260616T050651_R019_T44QMK_20260616T100816",
        "acquisition_date": "2026-06-16T05:06:51.025000Z",
        "scientific_note": "Surface alteration indicator; requires geological/structural verification"
      }
    },
    {
      "type": "Feature",
      "geometry": {
        "type": "Polygon",
        "coordinates": [
          [
            [
              80.19566,
              21.83973
            ],
            [
              80.19556,
              21.83973
            ],
            [
              80.19551,
              21.83977
            ],
            [
              80.19546,
              21.83982
            ],
            [
              80.19537,
              21.83981
            ],
            [
              80.19532,
              21.83986
            ],
            [
              80.19537,
              21.83991
            ],
            [
              80.19541,
              21.83995
            ],
            [
              80.19546,
              21.84
            ],
            [
              80.19556,
              21.84
            ],
            [
              80.19561,
              21.84004
            ],
            [
              80.19566,
              21.84009
            ],
            [
              80.19575,
              21.84009
            ],
            [
              80.19585,
              21.84009
            ],
            [
              80.1959,
              21.84004
            ],
            [
              80.19585,
              21.84
            ],
            [
              80.19575,
              21.84
            ],
            [
              80.1957,
              21.83995
            ],
            [
              80.19571,
              21.83986
            ],
            [
              80.19571,
              21.83977
            ],
            [
              80.19566,
              21.83973
            ],
            [
              80.19566,
              21.83973
            ]
          ]
        ]
      },
      "properties": {
        "id": "S2-ANOM-009",
        "confidence": "MODERATE",
        "spectral_index": 1.246,
        "indicator_type": "Surface Hydrothermal & Iron Alteration Gossan",
        "satellite_source": "Sentinel-2 L2A",
        "scene_id": "S2C_MSIL2A_20260616T050651_R019_T44QMK_20260616T100816",
        "acquisition_date": "2026-06-16T05:06:51.025000Z",
        "scientific_note": "Surface alteration indicator; requires geological/structural verification"
      }
    },
    {
      "type": "Feature",
      "geometry": {
        "type": "Polygon",
        "coordinates": [
          [
            [
              80.19745,
              21.84014
            ],
            [
              80.19749,
              21.8401
            ],
            [
              80.19754,
              21.84005
            ],
            [
              80.19754,
              21.83996
            ],
            [
              80.1975,
              21.83992
            ],
            [
              80.1974,
              21.83992
            ],
            [
              80.19735,
              21.83987
            ],
            [
              80.1973,
              21.83982
            ],
            [
              80.19725,
              21.83978
            ],
            [
              80.19725,
              21.83969
            ],
            [
              80.19725,
              21.8396
            ],
            [
              80.19726,
              21.83951
            ],
            [
              80.19721,
              21.83946
            ],
            [
              80.19711,
              21.83946
            ],
            [
              80.19706,
              21.83942
            ],
            [
              80.19701,
              21.83937
            ],
            [
              80.19697,
              21.83933
            ],
            [
              80.19692,
              21.83928
            ],
            [
              80.19682,
              21.83928
            ],
            [
              80.19677,
              21.83932
            ],
            [
              80.19682,
              21.83937
            ],
            [
              80.19687,
              21.83942
            ],
            [
              80.19682,
              21.83946
            ],
            [
              80.19677,
              21.83942
            ],
            [
              80.19672,
              21.83937
            ],
            [
              80.19663,
              21.83937
            ],
            [
              80.19653,
              21.83937
            ],
            [
              80.19648,
              21.83941
            ],
            [
              80.19653,
              21.83946
            ],
            [
              80.19663,
              21.83946
            ],
            [
              80.19667,
              21.83951
            ],
            [
              80.19667,
              21.8396
            ],
            [
              80.19663,
              21.83964
            ],
            [
              80.19658,
              21.83969
            ],
            [
              80.19663,
              21.83973
            ],
            [
              80.19667,
              21.83978
            ],
            [
              80.19662,
              21.83982
            ],
            [
              80.19658,
              21.83987
            ],
            [
              80.19658,
              21.83996
            ],
            [
              80.19662,
              21.84
            ],
            [
              80.19672,
              21.84
            ],
            [
              80.19677,
              21.83996
            ],
            [
              80.19682,
              21.83991
            ],
            [
              80.19687,
              21.83987
            ],
            [
              80.19682,
              21.83982
            ],
            [
              80.19677,
              21.83978
            ],
            [
              80.19677,
              21.83969
            ],
            [
              80.19677,
              21.8396
            ],
            [
              80.19682,
              21.83955
            ],
            [
              80.19692,
              21.83955
            ],
            [
              80.19701,
              21.83955
            ],
            [
              80.19711,
              21.83955
            ],
            [
              80.19716,
              21.8396
            ],
            [
              80.19711,
              21.83964
            ],
            [
              80.19701,
              21.83964
            ],
            [
              80.19696,
              21.83969
            ],
            [
              80.19696,
              21.83978
            ],
            [
              80.19701,
              21.83982
            ],
            [
              80.19711,
              21.83982
            ],
            [
              80.19716,
              21.83987
            ],
            [
              80.19716,
              21.83996
            ],
            [
              80.1972,
              21.84
            ],
            [
              80.19725,
              21.84005
            ],
            [
              80.1973,
              21.8401
            ],
            [
              80.19735,
              21.84014
            ],
            [
              80.19745,
              21.84014
            ]
          ]
        ]
      },
      "properties": {
        "id": "S2-ANOM-010",
        "confidence": "MODERATE",
        "spectral_index": 1.246,
        "indicator_type": "Surface Hydrothermal & Iron Alteration Gossan",
        "satellite_source": "Sentinel-2 L2A",
        "scene_id": "S2C_MSIL2A_20260616T050651_R019_T44QMK_20260616T100816",
        "acquisition_date": "2026-06-16T05:06:51.025000Z",
        "scientific_note": "Surface alteration indicator; requires geological/structural verification"
      }
    },
    {
      "type": "Feature",
      "geometry": {
        "type": "Polygon",
        "coordinates": [
          [
            [
              80.2002,
              21.83993
            ],
            [
              80.20011,
              21.83993
            ],
            [
              80.20006,
              21.83997
            ],
            [
              80.20006,
              21.84006
            ],
            [
              80.20011,
              21.84011
            ],
            [
              80.2002,
              21.84011
            ],
            [
              80.20025,
              21.84006
            ],
            [
              80.20025,
              21.83997
            ],
            [
              80.2002,
              21.83993
            ],
            [
              80.2002,
              21.83993
            ]
          ]
        ]
      },
      "properties": {
        "id": "S2-ANOM-011",
        "confidence": "MODERATE",
        "spectral_index": 1.246,
        "indicator_type": "Surface Hydrothermal & Iron Alteration Gossan",
        "satellite_source": "Sentinel-2 L2A",
        "scene_id": "S2C_MSIL2A_20260616T050651_R019_T44QMK_20260616T100816",
        "acquisition_date": "2026-06-16T05:06:51.025000Z",
        "scientific_note": "Surface alteration indicator; requires geological/structural verification"
      }
    },
    {
      "type": "Feature",
      "geometry": {
        "type": "Polygon",
        "coordinates": [
          [
            [
              80.20621,
              21.83969
            ],
            [
              80.20616,
              21.83973
            ],
            [
              80.20611,
              21.83978
            ],
            [
              80.20606,
              21.83982
            ],
            [
              80.20606,
              21.83991
            ],
            [
              80.20611,
              21.83996
            ],
            [
              80.20616,
              21.84
            ],
            [
              80.20615,
              21.84009
            ],
            [
              80.2062,
              21.84014
            ],
            [
              80.2063,
              21.84014
            ],
            [
              80.2064,
              21.84014
            ],
            [
              80.20644,
              21.84009
            ],
            [
              80.20645,
              21.84
            ],
            [
              80.2064,
              21.83996
            ],
            [
              80.20635,
              21.83991
            ],
            [
              80.20635,
              21.83982
            ],
            [
              80.2063,
              21.83978
            ],
            [
              80.20625,
              21.83973
            ],
            [
              80.20621,
              21.83969
            ],
            [
              80.20621,
              21.83969
            ]
          ]
        ]
      },
      "properties": {
        "id": "S2-ANOM-012",
        "confidence": "MODERATE",
        "spectral_index": 1.246,
        "indicator_type": "Surface Hydrothermal & Iron Alteration Gossan",
        "satellite_source": "Sentinel-2 L2A",
        "scene_id": "S2C_MSIL2A_20260616T050651_R019_T44QMK_20260616T100816",
        "acquisition_date": "2026-06-16T05:06:51.025000Z",
        "scientific_note": "Surface alteration indicator; requires geological/structural verification"
      }
    },
    {
      "type": "Feature",
      "geometry": {
        "type": "Polygon",
        "coordinates": [
          [
            [
              80.20804,
              21.83997
            ],
            [
              80.20795,
              21.83997
            ],
            [
              80.2079,
              21.84001
            ],
            [
              80.20794,
              21.84006
            ],
            [
              80.20799,
              21.8401
            ],
            [
              80.20804,
              21.84015
            ],
            [
              80.20809,
              21.8401
            ],
            [
              80.20809,
              21.84001
            ],
            [
              80.20804,
              21.83997
            ],
            [
              80.20804,
              21.83997
            ]
          ]
        ]
      },
      "properties": {
        "id": "S2-ANOM-013",
        "confidence": "MODERATE",
        "spectral_index": 1.246,
        "indicator_type": "Surface Hydrothermal & Iron Alteration Gossan",
        "satellite_source": "Sentinel-2 L2A",
        "scene_id": "S2C_MSIL2A_20260616T050651_R019_T44QMK_20260616T100816",
        "acquisition_date": "2026-06-16T05:06:51.025000Z",
        "scientific_note": "Surface alteration indicator; requires geological/structural verification"
      }
    },
    {
      "type": "Feature",
      "geometry": {
        "type": "Polygon",
        "coordinates": [
          [
            [
              80.20964,
              21.8402
            ],
            [
              80.20964,
              21.84011
            ],
            [
              80.20964,
              21.84002
            ],
            [
              80.20959,
              21.83997
            ],
            [
              80.20954,
              21.84002
            ],
            [
              80.20954,
              21.84011
            ],
            [
              80.20954,
              21.8402
            ],
            [
              80.20964,
              21.8402
            ]
          ]
        ]
      },
      "properties": {
        "id": "S2-ANOM-014",
        "confidence": "MODERATE",
        "spectral_index": 1.246,
        "indicator_type": "Surface Hydrothermal & Iron Alteration Gossan",
        "satellite_source": "Sentinel-2 L2A",
        "scene_id": "S2C_MSIL2A_20260616T050651_R019_T44QMK_20260616T100816",
        "acquisition_date": "2026-06-16T05:06:51.025000Z",
        "scientific_note": "Surface alteration indicator; requires geological/structural verification"
      }
    },
    {
      "type": "Feature",
      "geometry": {
        "type": "Polygon",
        "coordinates": [
          [
            [
              80.21177,
              21.84021
            ],
            [
              80.21177,
              21.84012
            ],
            [
              80.21182,
              21.84008
            ],
            [
              80.21191,
              21.84008
            ],
            [
              80.21201,
              21.84008
            ],
            [
              80.21206,
              21.84003
            ],
            [
              80.21206,
              21.83994
            ],
            [
              80.21206,
              21.83985
            ],
            [
              80.21211,
              21.83981
            ],
            [
              80.21216,
              21.83976
            ],
            [
              80.21211,
              21.83972
            ],
            [
              80.21201,
              21.83971
            ],
            [
              80.21196,
              21.83976
            ],
            [
              80.21196,
              21.83985
            ],
            [
              80.21191,
              21.83989
            ],
            [
              80.21186,
              21.83994
            ],
            [
              80.21182,
              21.83998
            ],
            [
              80.21172,
              21.83998
            ],
            [
              80.21167,
              21.84003
            ],
            [
              80.21167,
              21.84012
            ],
            [
              80.21162,
              21.84016
            ],
            [
              80.21157,
              21.84012
            ],
            [
              80.21157,
              21.84003
            ],
            [
              80.21153,
              21.83998
            ],
            [
              80.21143,
              21.83998
            ],
            [
              80.21133,
              21.83998
            ],
            [
              80.21124,
              21.83998
            ],
            [
              80.21119,
              21.84003
            ],
            [
              80.21123,
              21.84007
            ],
            [
              80.21133,
              21.84007
            ],
            [
              80.21138,
              21.84012
            ],
            [
              80.21133,
              21.84016
            ],
            [
              80.21128,
              21.84021
            ],
            [
              80.21177,
              21.84021
            ]
          ]
        ]
      },
      "properties": {
        "id": "S2-ANOM-015",
        "confidence": "MODERATE",
        "spectral_index": 1.246,
        "indicator_type": "Surface Hydrothermal & Iron Alteration Gossan",
        "satellite_source": "Sentinel-2 L2A",
        "scene_id": "S2C_MSIL2A_20260616T050651_R019_T44QMK_20260616T100816",
        "acquisition_date": "2026-06-16T05:06:51.025000Z",
        "scientific_note": "Surface alteration indicator; requires geological/structural verification"
      }
    },
    {
      "type": "Feature",
      "geometry": {
        "type": "Polygon",
        "coordinates": [
          [
            [
              80.21235,
              21.84021
            ],
            [
              80.21235,
              21.84012
            ],
            [
              80.21235,
              21.84003
            ],
            [
              80.21235,
              21.83994
            ],
            [
              80.2123,
              21.8399
            ],
            [
              80.2122,
              21.8399
            ],
            [
              80.21215,
              21.83994
            ],
            [
              80.21215,
              21.84003
            ],
            [
              80.21215,
              21.84012
            ],
            [
              80.21215,
              21.84021
            ],
            [
              80.21235,
              21.84021
            ]
          ]
        ]
      },
      "properties": {
        "id": "S2-ANOM-016",
        "confidence": "MODERATE",
        "spectral_index": 1.246,
        "indicator_type": "Surface Hydrothermal & Iron Alteration Gossan",
        "satellite_source": "Sentinel-2 L2A",
        "scene_id": "S2C_MSIL2A_20260616T050651_R019_T44QMK_20260616T100816",
        "acquisition_date": "2026-06-16T05:06:51.025000Z",
        "scientific_note": "Surface alteration indicator; requires geological/structural verification"
      }
    },
    {
      "type": "Feature",
      "geometry": {
        "type": "Polygon",
        "coordinates": [
          [
            [
              80.21559,
              21.84
            ],
            [
              80.21554,
              21.84005
            ],
            [
              80.21554,
              21.84014
            ],
            [
              80.21559,
              21.84018
            ],
            [
              80.21564,
              21.84014
            ],
            [
              80.21564,
              21.84005
            ],
            [
              80.21559,
              21.84
            ],
            [
              80.21559,
              21.84
            ]
          ]
        ]
      },
      "properties": {
        "id": "S2-ANOM-017",
        "confidence": "MODERATE",
        "spectral_index": 1.246,
        "indicator_type": "Surface Hydrothermal & Iron Alteration Gossan",
        "satellite_source": "Sentinel-2 L2A",
        "scene_id": "S2C_MSIL2A_20260616T050651_R019_T44QMK_20260616T100816",
        "acquisition_date": "2026-06-16T05:06:51.025000Z",
        "scientific_note": "Surface alteration indicator; requires geological/structural verification"
      }
    },
    {
      "type": "Feature",
      "geometry": {
        "type": "Polygon",
        "coordinates": [
          [
            [
              80.21767,
              21.84024
            ],
            [
              80.21767,
              21.84015
            ],
            [
              80.21767,
              21.84006
            ],
            [
              80.21767,
              21.83997
            ],
            [
              80.21762,
              21.83992
            ],
            [
              80.21757,
              21.83997
            ],
            [
              80.21757,
              21.84006
            ],
            [
              80.21757,
              21.84015
            ],
            [
              80.21757,
              21.84024
            ],
            [
              80.21767,
              21.84024
            ]
          ]
        ]
      },
      "properties": {
        "id": "S2-ANOM-018",
        "confidence": "MODERATE",
        "spectral_index": 1.246,
        "indicator_type": "Surface Hydrothermal & Iron Alteration Gossan",
        "satellite_source": "Sentinel-2 L2A",
        "scene_id": "S2C_MSIL2A_20260616T050651_R019_T44QMK_20260616T100816",
        "acquisition_date": "2026-06-16T05:06:51.025000Z",
        "scientific_note": "Surface alteration indicator; requires geological/structural verification"
      }
    },
    {
      "type": "Feature",
      "geometry": {
        "type": "Polygon",
        "coordinates": [
          [
            [
              80.2181,
              21.8401
            ],
            [
              80.21801,
              21.8401
            ],
            [
              80.21796,
              21.84015
            ],
            [
              80.21801,
              21.84019
            ],
            [
              80.2181,
              21.8402
            ],
            [
              80.21815,
              21.84015
            ],
            [
              80.2181,
              21.8401
            ],
            [
              80.2181,
              21.8401
            ]
          ]
        ]
      },
      "properties": {
        "id": "S2-ANOM-019",
        "confidence": "MODERATE",
        "spectral_index": 1.246,
        "indicator_type": "Surface Hydrothermal & Iron Alteration Gossan",
        "satellite_source": "Sentinel-2 L2A",
        "scene_id": "S2C_MSIL2A_20260616T050651_R019_T44QMK_20260616T100816",
        "acquisition_date": "2026-06-16T05:06:51.025000Z",
        "scientific_note": "Surface alteration indicator; requires geological/structural verification"
      }
    },
    {
      "type": "Feature",
      "geometry": {
        "type": "Polygon",
        "coordinates": [
          [
            [
              80.21878,
              21.84002
            ],
            [
              80.21873,
              21.84006
            ],
            [
              80.21873,
              21.84015
            ],
            [
              80.21878,
              21.8402
            ],
            [
              80.21883,
              21.84015
            ],
            [
              80.21883,
              21.84006
            ],
            [
              80.21878,
              21.84002
            ],
            [
              80.21878,
              21.84002
            ]
          ]
        ]
      },
      "properties": {
        "id": "S2-ANOM-020",
        "confidence": "MODERATE",
        "spectral_index": 1.246,
        "indicator_type": "Surface Hydrothermal & Iron Alteration Gossan",
        "satellite_source": "Sentinel-2 L2A",
        "scene_id": "S2C_MSIL2A_20260616T050651_R019_T44QMK_20260616T100816",
        "acquisition_date": "2026-06-16T05:06:51.025000Z",
        "scientific_note": "Surface alteration indicator; requires geological/structural verification"
      }
    },
    {
      "type": "Feature",
      "geometry": {
        "type": "Polygon",
        "coordinates": [
          [
            [
              80.16315,
              21.83965
            ],
            [
              80.16305,
              21.83965
            ],
            [
              80.163,
              21.8397
            ],
            [
              80.16295,
              21.83974
            ],
            [
              80.16285,
              21.83974
            ],
            [
              80.16281,
              21.83979
            ],
            [
              80.16285,
              21.83983
            ],
            [
              80.16295,
              21.83983
            ],
            [
              80.16305,
              21.83983
            ],
            [
              80.16314,
              21.83984
            ],
            [
              80.16324,
              21.83984
            ],
            [
              80.16329,
              21.83979
            ],
            [
              80.16324,
              21.83975
            ],
            [
              80.16319,
              21.8397
            ],
            [
              80.16315,
              21.83965
            ],
            [
              80.16315,
              21.83965
            ]
          ]
        ]
      },
      "properties": {
        "id": "S2-ANOM-021",
        "confidence": "MODERATE",
        "spectral_index": 1.246,
        "indicator_type": "Surface Hydrothermal & Iron Alteration Gossan",
        "satellite_source": "Sentinel-2 L2A",
        "scene_id": "S2C_MSIL2A_20260616T050651_R019_T44QMK_20260616T100816",
        "acquisition_date": "2026-06-16T05:06:51.025000Z",
        "scientific_note": "Surface alteration indicator; requires geological/structural verification"
      }
    },
    {
      "type": "Feature",
      "geometry": {
        "type": "Polygon",
        "coordinates": [
          [
            [
              80.16992,
              21.83969
            ],
            [
              80.16987,
              21.83973
            ],
            [
              80.16987,
              21.83982
            ],
            [
              80.16992,
              21.83987
            ],
            [
              80.16997,
              21.83982
            ],
            [
              80.16997,
              21.83973
            ],
            [
              80.16992,
              21.83969
            ],
            [
              80.16992,
              21.83969
            ]
          ]
        ]
      },
      "properties": {
        "id": "S2-ANOM-022",
        "confidence": "MODERATE",
        "spectral_index": 1.246,
        "indicator_type": "Surface Hydrothermal & Iron Alteration Gossan",
        "satellite_source": "Sentinel-2 L2A",
        "scene_id": "S2C_MSIL2A_20260616T050651_R019_T44QMK_20260616T100816",
        "acquisition_date": "2026-06-16T05:06:51.025000Z",
        "scientific_note": "Surface alteration indicator; requires geological/structural verification"
      }
    },
    {
      "type": "Feature",
      "geometry": {
        "type": "Polygon",
        "coordinates": [
          [
            [
              80.18211,
              21.8393
            ],
            [
              80.18206,
              21.83934
            ],
            [
              80.18202,
              21.83939
            ],
            [
              80.18197,
              21.83943
            ],
            [
              80.18197,
              21.83952
            ],
            [
              80.18197,
              21.83961
            ],
            [
              80.18197,
              21.8397
            ],
            [
              80.18201,
              21.83975
            ],
            [
              80.18206,
              21.83979
            ],
            [
              80.18201,
              21.83984
            ],
            [
              80.18196,
              21.83988
            ],
            [
              80.18201,
              21.83993
            ],
            [
              80.18211,
              21.83993
            ],
            [
              80.18221,
              21.83993
            ],
            [
              80.18225,
              21.83989
            ],
            [
              80.18221,
              21.83984
            ],
            [
              80.18216,
              21.8398
            ],
            [
              80.18221,
              21.83975
            ],
            [
              80.18226,
              21.83971
            ],
            [
              80.1823,
              21.83966
            ],
            [
              80.1824,
              21.83966
            ],
            [
              80.18245,
              21.83962
            ],
            [
              80.1824,
              21.83957
            ],
            [
              80.18235,
              21.83953
            ],
            [
              80.1824,
              21.83948
            ],
            [
              80.18245,
              21.83944
            ],
            [
              80.1824,
              21.83939
            ],
            [
              80.18231,
              21.83939
            ],
            [
              80.18221,
              21.83939
            ],
            [
              80.18216,
              21.83934
            ],
            [
              80.18211,
              21.8393
            ],
            [
              80.18211,
              21.8393
            ]
          ]
        ]
      },
      "properties": {
        "id": "S2-ANOM-023",
        "confidence": "MODERATE",
        "spectral_index": 1.246,
        "indicator_type": "Surface Hydrothermal & Iron Alteration Gossan",
        "satellite_source": "Sentinel-2 L2A",
        "scene_id": "S2C_MSIL2A_20260616T050651_R019_T44QMK_20260616T100816",
        "acquisition_date": "2026-06-16T05:06:51.025000Z",
        "scientific_note": "Surface alteration indicator; requires geological/structural verification"
      }
    },
    {
      "type": "Feature",
      "geometry": {
        "type": "Polygon",
        "coordinates": [
          [
            [
              80.19101,
              21.83979
            ],
            [
              80.19096,
              21.83984
            ],
            [
              80.19092,
              21.83988
            ],
            [
              80.19087,
              21.83993
            ],
            [
              80.19091,
              21.83997
            ],
            [
              80.19101,
              21.83997
            ],
            [
              80.19106,
              21.83993
            ],
            [
              80.19106,
              21.83984
            ],
            [
              80.19101,
              21.83979
            ],
            [
              80.19101,
              21.83979
            ]
          ]
        ]
      },
      "properties": {
        "id": "S2-ANOM-024",
        "confidence": "MODERATE",
        "spectral_index": 1.246,
        "indicator_type": "Surface Hydrothermal & Iron Alteration Gossan",
        "satellite_source": "Sentinel-2 L2A",
        "scene_id": "S2C_MSIL2A_20260616T050651_R019_T44QMK_20260616T100816",
        "acquisition_date": "2026-06-16T05:06:51.025000Z",
        "scientific_note": "Surface alteration indicator; requires geological/structural verification"
      }
    },
    {
      "type": "Feature",
      "geometry": {
        "type": "Polygon",
        "coordinates": [
          [
            [
              80.2005,
              21.83984
            ],
            [
              80.2004,
              21.83984
            ],
            [
              80.20035,
              21.83988
            ],
            [
              80.20035,
              21.83997
            ],
            [
              80.2004,
              21.84002
            ],
            [
              80.20049,
              21.84002
            ],
            [
              80.20054,
              21.83998
            ],
            [
              80.20054,
              21.83989
            ],
            [
              80.2005,
              21.83984
            ],
            [
              80.2005,
              21.83984
            ]
          ]
        ]
      },
      "properties": {
        "id": "S2-ANOM-025",
        "confidence": "MODERATE",
        "spectral_index": 1.246,
        "indicator_type": "Surface Hydrothermal & Iron Alteration Gossan",
        "satellite_source": "Sentinel-2 L2A",
        "scene_id": "S2C_MSIL2A_20260616T050651_R019_T44QMK_20260616T100816",
        "acquisition_date": "2026-06-16T05:06:51.025000Z",
        "scientific_note": "Surface alteration indicator; requires geological/structural verification"
      }
    }
  ]
}